{
  "type": "FeatureCollection",
  "features": [
    {
      "type": "Feature",
      "properties": {
        "norad_id": 28054,
        "name": "DMSP 5D-3 F16 (USA 172)",
        "group": "weather",
        "lat": 63.05579948686421,
        "lon": -158.510391273189,
        "alt_km": 842.2392051239012,
        "timestamp": "2025-12-11T20:41:14.730560+00:00",
        "meta_object_name": "DMSP 5D-3 F16 (USA 172)",
        "meta_object_id": "2003-048A",
        "meta_epoch": "2025-12-11T12:23:16.326816",
        "meta_mean_motion": 14.14423643,
        "meta_eccentricity": 0.00065387,
        "meta_inclination": 99.0048,
        "meta_ra_of_asc_node": 2.9635,
        "meta_arg_of_pericenter": 324.7448,
        "meta_mean_anomaly": 190.7885,
        "meta_ephemeris_type": 0,
        "meta_classification_type": "U",
        "meta_norad_cat_id": 28054,
        "meta_element_set_no": 999,
        "meta_rev_at_epoch": 14295,
        "meta_bstar": 0.00013937036,
        "meta_mean_motion_dot": 2.21e-06,
        "meta_mean_motion_ddot": 0,
        "tle_line1": "1 28054U 03048A   25345.51616119  .00000221  00000+0  13937-3 0  9993",
        "tle_line2": "2 28054  99.0048   2.9635 0006538 324.7448 190.7885 14.14423643142951"
      },
      "geometry": {
        "type": "Point",
        "coordinates": [
          -158.510391273189,
          63.05579948686421
        ]
      }
    },
    {
      "type": "Feature",
      "properties": {
        "norad_id": 28912,
        "name": "METEOSAT-9 (MSG-2)",
        "group": "weather",
        "lat": 3.1777021580448666,
        "lon": 76.55034501848365,
        "alt_km": 35799.95547571484,
        "timestamp": "2025-12-11T20:41:14.730607+00:00",
        "meta_object_name": "METEOSAT-9 (MSG-2)",
        "meta_object_id": "2005-049B",
        "meta_epoch": "2025-12-10T20:37:31.694304",
        "meta_mean_motion": 1.00275463,
        "meta_eccentricity": 0.0003704,
        "meta_inclination": 8.9357,
        "meta_ra_of_asc_node": 55.9949,
        "meta_arg_of_pericenter": 190.2808,
        "meta_mean_anomaly": 188.5842,
        "meta_ephemeris_type": 0,
        "meta_classification_type": "U",
        "meta_norad_cat_id": 28912,
        "meta_element_set_no": 999,
        "meta_rev_at_epoch": 511,
        "meta_bstar": 0,
        "meta_mean_motion_dot": 1.27e-06,
        "meta_mean_motion_ddot": 0,
        "tle_line1": "1 28912U 05049B   25344.85939461  .00000127  00000+0  00000+0 0  9991",
        "tle_line2": "2 28912   8.9357  55.9949 0003704 190.2808 188.5842  1.00275463  5110"
      },
      "geometry": {
        "type": "Point",
        "coordinates": [
          76.55034501848365,
          3.1777021580448666
        ]
      }
    },
    {
      "type": "Feature",
      "properties": {
        "norad_id": 29522,
        "name": "DMSP 5D-3 F17 (USA 191)",
        "group": "weather",
        "lat": 53.2643703408158,
        "lon": -20.624698292862707,
        "alt_km": 844.2580213357905,
        "timestamp": "2025-12-11T20:41:14.730624+00:00",
        "meta_object_name": "DMSP 5D-3 F17 (USA 191)",
        "meta_object_id": "2006-050A",
        "meta_epoch": "2025-12-11T13:38:35.487456",
        "meta_mean_motion": 14.14918695,
        "meta_eccentricity": 0.0009358,
        "meta_inclination": 98.7394,
        "meta_ra_of_asc_node": 350.9819,
        "meta_arg_of_pericenter": 228.5123,
        "meta_mean_anomaly": 131.5248,
        "meta_ephemeris_type": 0,
        "meta_classification_type": "U",
        "meta_norad_cat_id": 29522,
        "meta_element_set_no": 999,
        "meta_rev_at_epoch": 98588,
        "meta_bstar": 0.00015885627,
        "meta_mean_motion_dot": 2.64e-06,
        "meta_mean_motion_ddot": 0,
        "tle_line1": "1 29522U 06050A   25345.56846629  .00000264  00000+0  15886-3 0  9998",
        "tle_line2": "2 29522  98.7394 350.9819 0009358 228.5123 131.5248 14.14918695985885"
      },
      "geometry": {
        "type": "Point",
        "coordinates": [
          -20.624698292862707,
          53.2643703408158
        ]
      }
    },
    {
      "type": "Feature",
      "properties": {
        "norad_id": 32958,
        "name": "FENGYUN 3A",
        "group": "weather",
        "lat": 64.71200127286937,
        "lon": 124.24898303099596,
        "alt_km": 826.0564621771182,
        "timestamp": "2025-12-11T20:41:14.730637+00:00",
        "meta_object_name": "FENGYUN 3A",
        "meta_object_id": "2008-026A",
        "meta_epoch": "2025-12-11T13:23:10.858848",
        "meta_mean_motion": 14.19514062,
        "meta_eccentricity": 0.00079524,
        "meta_inclination": 98.6697,
        "meta_ra_of_asc_node": 285.1095,
        "meta_arg_of_pericenter": 314.0975,
        "meta_mean_anomaly": 45.9546,
        "meta_ephemeris_type": 0,
        "meta_classification_type": "U",
        "meta_norad_cat_id": 32958,
        "meta_element_set_no": 999,
        "meta_rev_at_epoch": 90878,
        "meta_bstar": 0.00012045508,
        "meta_mean_motion_dot": 2.11e-06,
        "meta_mean_motion_ddot": 0,
        "tle_line1": "1 32958U 08026A   25345.55776457  .00000211  00000+0  12046-3 0  9997",
        "tle_line2": "2 32958  98.6697 285.1095 0007952 314.0975  45.9546 14.19514062908784"
      },
      "geometry": {
        "type": "Point",
        "coordinates": [
          124.24898303099596,
          64.71200127286937
        ]
      }
    },
    {
      "type": "Feature",
      "properties": {
        "norad_id": 35491,
        "name": "GOES 14",
        "group": "weather",
        "lat": -0.35777766986752707,
        "lon": -78.04816667973645,
        "alt_km": 35829.50012715336,
        "timestamp": "2025-12-11T20:41:14.730652+00:00",
        "meta_object_name": "GOES 14",
        "meta_object_id": "2009-033A",
        "meta_epoch": "2025-12-11T11:16:48.751680",
        "meta_mean_motion": 1.00103386,
        "meta_eccentricity": 0.00014146,
        "meta_inclination": 1.1994,
        "meta_ra_of_asc_node": 85.4084,
        "meta_arg_of_pericenter": 147.048,
        "meta_mean_anomaly": 268.2325,
        "meta_ephemeris_type": 0,
        "meta_classification_type": "U",
        "meta_norad_cat_id": 35491,
        "meta_element_set_no": 999,
        "meta_rev_at_epoch": 471,
        "meta_bstar": 0,
        "meta_mean_motion_dot": -3.2e-07,
        "meta_mean_motion_ddot": 0,
        "tle_line1": "1 35491U 09033A   25345.47000870 -.00000032  00000+0  00000+0 0  9996",
        "tle_line2": "2 35491   1.1994  85.4084 0001414 147.0480 268.2325  1.00103386  4713"
      },
      "geometry": {
        "type": "Point",
        "coordinates": [
          -78.04816667973645,
          -0.35777766986752707
        ]
      }
    },
    {
      "type": "Feature",
      "properties": {
        "norad_id": 35951,
        "name": "DMSP 5D-3 F18 (USA 210)",
        "group": "weather",
        "lat": -75.10156663627666,
        "lon": -1.7281993061507872,
        "alt_km": 857.3441584778457,
        "timestamp": "2025-12-11T20:41:14.730664+00:00",
        "meta_object_name": "DMSP 5D-3 F18 (USA 210)",
        "meta_object_id": "2009-057A",
        "meta_epoch": "2025-12-11T14:15:59.170176",
        "meta_mean_motion": 14.14768156,
        "meta_eccentricity": 0.00120681,
        "meta_inclination": 98.8834,
        "meta_ra_of_asc_node": 322.0009,
        "meta_arg_of_pericenter": 65.7399,
        "meta_mean_anomaly": 294.5033,
        "meta_ephemeris_type": 0,
        "meta_classification_type": "U",
        "meta_norad_cat_id": 35951,
        "meta_element_set_no": 999,
        "meta_rev_at_epoch": 83306,
        "meta_bstar": 0.00023410018,
        "meta_mean_motion_dot": 4.07e-06,
        "meta_mean_motion_ddot": 0,
        "tle_line1": "1 35951U 09057A   25345.59443484  .00000407  00000+0  23410-3 0  9997",
        "tle_line2": "2 35951  98.8834 322.0009 0012068  65.7399 294.5033 14.14768156833066"
      },
      "geometry": {
        "type": "Point",
        "coordinates": [
          -1.7281993061507872,
          -75.10156663627666
        ]
      }
    },
    {
      "type": "Feature",
      "properties": {
        "norad_id": 36411,
        "name": "EWS-G2 (GOES 15)",
        "group": "weather",
        "lat": 0.10864230674752112,
        "lon": 92.52320764838883,
        "alt_km": 35810.691949474014,
        "timestamp": "2025-12-11T20:41:14.730677+00:00",
        "meta_object_name": "EWS-G2 (GOES 15)",
        "meta_object_id": "2010-008A",
        "meta_epoch": "2025-12-11T15:03:13.121280",
        "meta_mean_motion": 1.00269515,
        "meta_eccentricity": 0.00057963,
        "meta_inclination": 0.8115,
        "meta_ra_of_asc_node": 86.0579,
        "meta_arg_of_pericenter": 174.5048,
        "meta_mean_anomaly": 107.2429,
        "meta_ephemeris_type": 0,
        "meta_classification_type": "U",
        "meta_norad_cat_id": 36411,
        "meta_element_set_no": 999,
        "meta_rev_at_epoch": 5775,
        "meta_bstar": 0,
        "meta_mean_motion_dot": 4.6e-07,
        "meta_mean_motion_ddot": 0,
        "tle_line1": "1 36411U 10008A   25345.62723520  .00000046  00000+0  00000+0 0  9998",
        "tle_line2": "2 36411   0.8115  86.0579 0005796 174.5048 107.2429  1.00269515 57751"
      },
      "geometry": {
        "type": "Point",
        "coordinates": [
          92.52320764838883,
          0.10864230674752112
        ]
      }
    }
  ]
}